start=new Date('2022-10-12T00:00:00.000Z').valueOf();
sats=[{"RCS_SIZE":"LARGE","EPOCH":"2022-10-11T12:48:41.180544","BSTAR":"-0.00001697900000","PERIOD":"95.438","OBJECT_NAME":"STARLINK-3272","RA_OF_ASC_NODE":"68.8354","TLE_LINE2":"2 50187  53.2157  68.8354 0002159  41.2674 318.8481 15.08830999 48749","EPHEMERIS_TYPE":"0","INCLINATION":"53.2157","COUNTRY_CODE":"US","ELEMENT_SET_NO":"999","NORAD_CAT_ID":"50187","ARG_OF_PERICENTER":"41.2674","CENTER_NAME":"EARTH","REF_FRAME":"TEME","CLASSIFICATION_TYPE":"U","MEAN_ANOMALY":"318.8481","OBJECT_TYPE":"PAYLOAD","APOAPSIS":"541.266","LAUNCH_DATE":"2021-12-18","PERIAPSIS":"538.279","FILE":"3604484","ECCENTRICITY":"0.00021590","SITE":"AFWTR","OBJECT_ID":"2021-125AH","MEAN_MOTION":"15.08830999","REV_AT_EPOCH":"4874","MEAN_MOTION_DDOT":"0.0000000000000","SEMIMAJOR_AXIS":"6917.908","MEAN_ELEMENT_THEORY":"SGP4","DECAY_DATE":null,"TLE_LINE1":"1 50187U 21125AH  22284.53380996 -.00000558  00000-0 -16979-4 0  9999","GP_ID":"214823976","MEAN_MOTION_DOT":"-0.00000558","TIME_SYSTEM":"UTC"},{"INCLINATION":"53.2167","TLE_LINE2":"2 50188  53.2167  67.6233 0001783  47.9826 312.1318 15.08838055 48846","EPHEMERIS_TYPE":"0","COUNTRY_CODE":"US","PERIOD":"95.438","BSTAR":"-0.00006173200000","RA_OF_ASC_NODE":"67.6233","OBJECT_NAME":"STARLINK-3275","RCS_SIZE":"LARGE","EPOCH":"2022-10-11T19:15:31.001760","OBJECT_TYPE":"PAYLOAD","MEAN_ANOMALY":"312.1318","CLASSIFICATION_TYPE":"U","REF_FRAME":"TEME","CENTER_NAME":"EARTH","NORAD_CAT_ID":"50188","ELEMENT_SET_NO":"999","ARG_OF_PERICENTER":"47.9826","SITE":"AFWTR","ECCENTRICITY":"0.00017830","MEAN_MOTION":"15.08838055","REV_AT_EPOCH":"4884","OBJECT_ID":"2021-125AJ","LAUNCH_DATE":"2021-12-18","PERIAPSIS":"538.518","APOAPSIS":"540.985","FILE":"3604484","MEAN_MOTION_DOT":"-0.00001270","TIME_SYSTEM":"UTC","DECAY_DATE":null,"GP_ID":"214822724","TLE_LINE1":"1 50188U 21125AJ  22284.80244215 -.00001270  00000-0 -61732-4 0  9992","SEMIMAJOR_AXIS":"6917.886","MEAN_ELEMENT_THEORY":"SGP4","MEAN_MOTION_DDOT":"0.0000000000000"},{"OBJECT_TYPE":"PAYLOAD","MEAN_ANOMALY":"318.9911","CLASSIFICATION_TYPE":"U","CENTER_NAME":"EARTH","REF_FRAME":"TEME","ARG_OF_PERICENTER":"41.1225","NORAD_CAT_ID":"50189","ELEMENT_SET_NO":"999","COUNTRY_CODE":"US","INCLINATION":"53.2182","TLE_LINE2":"2 50189  53.2182  77.6281 0001919  41.1225 318.9911 15.08823291 48702","EPHEMERIS_TYPE":"0","RA_OF_ASC_NODE":"77.6281","OBJECT_NAME":"STARLINK-3276","PERIOD":"95.439","BSTAR":"-0.00007555400000","EPOCH":"2022-10-11T19:19:31.220544","RCS_SIZE":"LARGE","MEAN_MOTION_DOT":"-0.00001490","TIME_SYSTEM":"UTC","GP_ID":"214823474","TLE_LINE1":"1 50189U 21125AK  22284.80522246 -.00001490  00000-0 -75554-4 0  9997","DECAY_DATE":null,"MEAN_ELEMENT_THEORY":"SGP4","SEMIMAJOR_AXIS":"6917.931","MEAN_MOTION_DDOT":"0.0000000000000","OBJECT_ID":"2021-125AK","MEAN_MOTION":"15.08823291","REV_AT_EPOCH":"4870","SITE":"AFWTR","ECCENTRICITY":"0.00019190","FILE":"3604484","LAUNCH_DATE":"2021-12-18","APOAPSIS":"541.124","PERIAPSIS":"538.469"},{"INCLINATION":"53.2177","TLE_LINE2":"2 50190  53.2177  68.8969 0001665  47.2426 312.8706 15.08823538 48755","EPHEMERIS_TYPE":"0","COUNTRY_CODE":"US","PERIOD":"95.439","BSTAR":"-0.00020355000000","RA_OF_ASC_NODE":"68.8969","OBJECT_NAME":"STARLINK-3268","RCS_SIZE":"LARGE","EPOCH":"2022-10-11T12:32:46.817376","OBJECT_TYPE":"PAYLOAD","MEAN_ANOMALY":"312.8706","CLASSIFICATION_TYPE":"U","CENTER_NAME":"EARTH","REF_FRAME":"TEME","NORAD_CAT_ID":"50190","ELEMENT_SET_NO":"999","ARG_OF_PERICENTER":"47.2426","SITE":"AFWTR","ECCENTRICITY":"0.00016650","REV_AT_EPOCH":"4875","OBJECT_ID":"2021-125AL","MEAN_MOTION":"15.08823538","LAUNCH_DATE":"2021-12-18","APOAPSIS":"540.948","PERIAPSIS":"538.644","FILE":"3603543","TIME_SYSTEM":"UTC","MEAN_MOTION_DOT":"-0.00003525","DECAY_DATE":null,"GP_ID":"214784253","TLE_LINE1":"1 50190U 21125AL  22284.52276409 -.00003525  00000-0 -20355-3 0  9994","SEMIMAJOR_AXIS":"6917.931","MEAN_ELEMENT_THEORY":"SGP4","MEAN_MOTION_DDOT":"0.0000000000000"},{"OBJECT_TYPE":"PAYLOAD","MEAN_ANOMALY":"314.2610","CENTER_NAME":"EARTH","REF_FRAME":"TEME","CLASSIFICATION_TYPE":"U","ARG_OF_PERICENTER":"45.8543","ELEMENT_SET_NO":"999","NORAD_CAT_ID":"50191","COUNTRY_CODE":"US","TLE_LINE2":"2 50191  53.2171  87.6529 0001961  45.8543 314.2610 15.08847044 48516","EPHEMERIS_TYPE":"0","INCLINATION":"53.2171","OBJECT_NAME":"STARLINK-3273","RA_OF_ASC_NODE":"87.6529","BSTAR":"0.00025477000000","PERIOD":"95.437","EPOCH":"2022-10-11T19:07:34.835808","RCS_SIZE":"LARGE","MEAN_MOTION_DOT":"0.00003770","TIME_SYSTEM":"UTC","GP_ID":"214824476","TLE_LINE1":"1 50191U 21125AM  22284.79693097  .00003770  00000-0  25477-3 0  9990","DECAY_DATE":null,"MEAN_ELEMENT_THEORY":"SGP4","SEMIMAJOR_AXIS":"6917.859","MEAN_MOTION_DDOT":"0.0000000000000","REV_AT_EPOCH":"4851","MEAN_MOTION":"15.08847044","OBJECT_ID":"2021-125AM","ECCENTRICITY":"0.00019610","SITE":"AFWTR","FILE":"3604484","LAUNCH_DATE":"2021-12-18","APOAPSIS":"541.080","PERIAPSIS":"538.367"},{"EPOCH":"2022-10-11T18:49:01.576992","RCS_SIZE":"LARGE","OBJECT_NAME":"STARLINK-3259","RA_OF_ASC_NODE":"67.7201","BSTAR":"-0.00006466400000","PERIOD":"95.438","COUNTRY_CODE":"US","TLE_LINE2":"2 50192  53.2167  67.7201 0002058  46.7639 313.3525 15.08835398 48796","EPHEMERIS_TYPE":"0","INCLINATION":"53.2167","ARG_OF_PERICENTER":"46.7639","ELEMENT_SET_NO":"999","NORAD_CAT_ID":"50192","CENTER_NAME":"EARTH","REF_FRAME":"TEME","CLASSIFICATION_TYPE":"U","MEAN_ANOMALY":"313.3525","OBJECT_TYPE":"PAYLOAD","FILE":"3604484","PERIAPSIS":"538.336","LAUNCH_DATE":"2021-12-18","APOAPSIS":"541.183","MEAN_MOTION":"15.08835398","OBJECT_ID":"2021-125AN","REV_AT_EPOCH":"4879","ECCENTRICITY":"0.00020580","SITE":"AFWTR","MEAN_MOTION_DDOT":"0.0000000000000","MEAN_ELEMENT_THEORY":"SGP4","SEMIMAJOR_AXIS":"6917.894","TLE_LINE1":"1 50192U 21125AN  22284.78404603 -.00001317  00000-0 -64664-4 0  9992","GP_ID":"214823224","DECAY_DATE":null,"TIME_SYSTEM":"UTC","MEAN_MOTION_DOT":"-0.00001317"},{"FILE":"3604484","LAUNCH_DATE":"2021-12-18","PERIAPSIS":"538.311","APOAPSIS":"541.224","OBJECT_ID":"2021-125AP","MEAN_MOTION":"15.08832713","REV_AT_EPOCH":"4884","ECCENTRICITY":"0.00021050","SITE":"AFWTR","MEAN_MOTION_DDOT":"0.0000000000000","MEAN_ELEMENT_THEORY":"SGP4","SEMIMAJOR_AXIS":"6917.903","TLE_LINE1":"1 50193U 21125AP  22284.79509871  .00000760  00000-0  65850-4 0  9994","GP_ID":"214822975","DECAY_DATE":null,"TIME_SYSTEM":"UTC","MEAN_MOTION_DOT":"0.00000760","EPOCH":"2022-10-11T19:04:56.528544","RCS_SIZE":"LARGE","OBJECT_NAME":"STARLINK-3261","RA_OF_ASC_NODE":"67.6712","BSTAR":"0.00006585000000","PERIOD":"95.438","COUNTRY_CODE":"US","EPHEMERIS_TYPE":"0","TLE_LINE2":"2 50193  53.2197  67.6712 0002105  42.0546 318.0608 15.08832713 48843","INCLINATION":"53.2197","ARG_OF_PERICENTER":"42.0546","ELEMENT_SET_NO":"999","NORAD_CAT_ID":"50193","REF_FRAME":"TEME","CENTER_NAME":"EARTH","CLASSIFICATION_TYPE":"U","MEAN_ANOMALY":"318.0608","OBJECT_TYPE":"PAYLOAD"},{"OBJECT_TYPE":"PAYLOAD","MEAN_ANOMALY":"320.1815","CENTER_NAME":"EARTH","REF_FRAME":"TEME","CLASSIFICATION_TYPE":"U","ELEMENT_SET_NO":"999","NORAD_CAT_ID":"50194","ARG_OF_PERICENTER":"39.9320","TLE_LINE2":"2 50194  53.2174  67.7344 0001950  39.9320 320.1815 15.08828721 48841","EPHEMERIS_TYPE":"0","INCLINATION":"53.2174","COUNTRY_CODE":"US","BSTAR":"-0.00012882000000","PERIOD":"95.438","OBJECT_NAME":"STARLINK-3269","RA_OF_ASC_NODE":"67.7344","RCS_SIZE":"MEDIUM","EPOCH":"2022-10-11T18:43:43.362336","TIME_SYSTEM":"UTC","MEAN_MOTION_DOT":"-0.00002337","DECAY_DATE":null,"TLE_LINE1":"1 50194U 21125AQ  22284.78036299 -.00002337  00000-0 -12882-3 0  9993","GP_ID":"214824226","SEMIMAJOR_AXIS":"6917.915","MEAN_ELEMENT_THEORY":"SGP4","MEAN_MOTION_DDOT":"0.0000000000000","ECCENTRICITY":"0.00019500","SITE":"AFWTR","OBJECT_ID":"2021-125AQ","MEAN_MOTION":"15.08828721","REV_AT_EPOCH":"4884","LAUNCH_DATE":"2021-12-18","PERIAPSIS":"538.431","APOAPSIS":"541.129","FILE":"3604484"},{"RCS_SIZE":"LARGE","EPOCH":"2022-10-11T12:38:04.911936","TLE_LINE2":"2 50195  53.2177  68.8792 0001771  55.3072 304.8087 15.08834856 48757","EPHEMERIS_TYPE":"0","INCLINATION":"53.2177","COUNTRY_CODE":"US","BSTAR":"-0.00019594000000","PERIOD":"95.438","OBJECT_NAME":"STARLINK-3266","RA_OF_ASC_NODE":"68.8792","CENTER_NAME":"EARTH","REF_FRAME":"TEME","CLASSIFICATION_TYPE":"U","ELEMENT_SET_NO":"999","NORAD_CAT_ID":"50195","ARG_OF_PERICENTER":"55.3072","OBJECT_TYPE":"PAYLOAD","MEAN_ANOMALY":"304.8087","ECCENTRICITY":"0.00017710","SITE":"AFWTR","OBJECT_ID":"2021-125AR","REV_AT_EPOCH":"4875","MEAN_MOTION":"15.08834856","LAUNCH_DATE":"2021-12-18","PERIAPSIS":"538.536","APOAPSIS":"540.986","FILE":"3604484","SEMIMAJOR_AXIS":"6917.896","MEAN_ELEMENT_THEORY":"SGP4","MEAN_MOTION_DDOT":"0.0000000000000","TIME_SYSTEM":"UTC","MEAN_MOTION_DOT":"-0.00003405","DECAY_DATE":null,"GP_ID":"214823977","TLE_LINE1":"1 50195U 21125AR  22284.52644574 -.00003405  00000-0 -19594-3 0  9991"},{"PERIAPSIS":"538.266","LAUNCH_DATE":"2021-12-18","APOAPSIS":"541.266","FILE":"3604484","SITE":"AFWTR","ECCENTRICITY":"0.00021680","OBJECT_ID":"2021-125AS","MEAN_MOTION":"15.08833264","REV_AT_EPOCH":"4880","DECAY_DATE":null,"TLE_LINE1":"1 50196U 21125AS  22284.83924534 -.00001033  00000-0 -46802-4 0  9991","GP_ID":"214822725","MEAN_MOTION_DOT":"-0.00001033","TIME_SYSTEM":"UTC","MEAN_MOTION_DDOT":"0.0000000000000","SEMIMAJOR_AXIS":"6917.901","MEAN_ELEMENT_THEORY":"SGP4","PERIOD":"95.438","BSTAR":"-0.00004680200000","RA_OF_ASC_NODE":"67.4832","OBJECT_NAME":"STARLINK-3263","INCLINATION":"53.2182","EPHEMERIS_TYPE":"0","TLE_LINE2":"2 50196  53.2182  67.4832 0002168  36.7503 323.3637 15.08833264 48802","COUNTRY_CODE":"US","RCS_SIZE":"LARGE","EPOCH":"2022-10-11T20:08:30.797376","MEAN_ANOMALY":"323.3637","OBJECT_TYPE":"PAYLOAD","NORAD_CAT_ID":"50196","ELEMENT_SET_NO":"999","ARG_OF_PERICENTER":"36.7503","CLASSIFICATION_TYPE":"U","CENTER_NAME":"EARTH","REF_FRAME":"TEME"}];
